*******************************************************************************
Ephemeris / WWW_USER Fri Mar  7 10:00:01 2025 Pasadena, USA      / Horizons    
*******************************************************************************
Target body name: 358P/PANSTARRS                  {source: JPL#33}
Center body name: Earth (399)                     {source: DE441}
Center-site name: Mauna Kea
*******************************************************************************
Start time      : A.D. 2018-Aug-18 04:58:00.0000 UT      
Stop  time      : A.D. 2018-Aug-18 15:53:00.0000 UT      
Step-size       : 1 minutes
*******************************************************************************
Target pole/equ : undefined
Target radii    : undefined                                                    
Center geodetic : 204.5278, 19.8260847, 4.21024   {E-lon(deg),Lat(deg),Alt(km)}
Center cylindric: 204.5278, 6006.35451, 2151.0229 {E-lon(deg),Dxy(km),Dz(km)}
Center pole/equ : ITRF93                          {East-longitude positive}
Center radii    : 6378.137, 6378.137, 6356.752 km {Equator_a, b, pole_c}       
Target primary  : Sun
Vis. interferer : MOON (R_eq= 1737.400) km        {source: DE441}
Rel. light bend : Sun                             {source: DE441}
Rel. lght bnd GM: 1.3271E+11 km^3/s^2                                          
Small-body perts: Yes                             {source: SB441-N16}
Atmos refraction: NO (AIRLESS)
RA format       : HMS
Time format     : CAL 
Calendar mode   : Mixed Julian/Gregorian
RTS-only print  : NO       
EOP file        : eop.250306.p250602                                           
EOP coverage    : DATA-BASED 1962-JAN-20 TO 2025-MAR-06. PREDICTS-> 2025-JUN-01
Units conversion: 1 au= 149597870.700 km, c= 299792.458 km/s, 1 day= 86400.0 s 
Table cut-offs 1: Elevation (-90.0deg=NO ),Airmass (>38.000=NO), Daylight (YES)
Table cut-offs 2: Solar elongation (  0.0,180.0=NO ),Local Hour Angle( 0.0=NO )
Table cut-offs 3: RA/DEC angular rate (     0.0=NO )                           
*******************************************************************************
Initial IAU76/J2000 heliocentric ecliptic osculating elements (au, days, deg.):
  EPOCH=  2459793.5 ! 2022-Aug-02.0000000 (TDB)    RMSW= n.a.                  
   EC= .2388922136090974   QR= 2.394903345037887   TP= 2460259.6862889272      
   OM= 85.70246509974154   W= 299.7728624007243    IN= 11.06025031481611       
  Equivalent ICRF heliocentric cartesian coordinates (au, au/d):
   X= 3.243054425204740E-01  Y=-2.897679241187805E+00  Z=-1.376383147061824E+00
  VX= 8.746409534656921E-03 VY= 3.598394346577952E-03 VZ=-2.469697424538527E-04
Comet physical (GM= km^3/s^2; RAD= km):                                        
   GM= n.a.                RAD= n.a.                                           
   M1=  7.8      M2=  17.2     k1=  30.    k2=  5.      PHCOF=  .030           
Comet non-gravitational force model (AMRAT=m^2/kg;A1-A3=au/d^2;DT=days;R0=au): 
   AMRAT=  0.                                      DT=  0.                     
   A1= 0.                  A2= -2.303385920823E-10 A3= 0.                      
 Standard model:                                                               
   ALN=  .1112620426   NK=  4.6142   NM=  2.15     NN=  5.093    R0=  2.808    
*******************************************************************************
 Date__(UT)__HR:MN     R.A._________(ICRF)_________DEC
******************************************************
$$SOE
 2018-Aug-18 10:49     05 33 55.216391 +19 27 58.14428
 2018-Aug-18 10:50     05 33 55.282245 +19 27 58.25927
 2018-Aug-18 10:51     05 33 55.348096 +19 27 58.37427
 2018-Aug-18 10:52     05 33 55.413942 +19 27 58.48928
 2018-Aug-18 10:53     05 33 55.479785 +19 27 58.60429
 2018-Aug-18 10:54     05 33 55.545623 +19 27 58.71930
 2018-Aug-18 10:55     05 33 55.611458 +19 27 58.83432
 2018-Aug-18 10:56     05 33 55.677288 +19 27 58.94934
 2018-Aug-18 10:57     05 33 55.743115 +19 27 59.06437
 2018-Aug-18 10:58     05 33 55.808937 +19 27 59.17940
 2018-Aug-18 10:59     05 33 55.874756 +19 27 59.29444
 2018-Aug-18 11:00     05 33 55.940570 +19 27 59.40948
 2018-Aug-18 11:01     05 33 56.006381 +19 27 59.52452
 2018-Aug-18 11:02     05 33 56.072187 +19 27 59.63957
 2018-Aug-18 11:03     05 33 56.137989 +19 27 59.75462
 2018-Aug-18 11:04     05 33 56.203787 +19 27 59.86967
 2018-Aug-18 11:05     05 33 56.269581 +19 27 59.98473
 2018-Aug-18 11:06     05 33 56.335371 +19 28 00.09979
 2018-Aug-18 11:07     05 33 56.401157 +19 28 00.21485
 2018-Aug-18 11:08     05 33 56.466939 +19 28 00.32992
 2018-Aug-18 11:09     05 33 56.532717 +19 28 00.44499
 2018-Aug-18 11:10     05 33 56.598491 +19 28 00.56007
 2018-Aug-18 11:11     05 33 56.664261 +19 28 00.67515
 2018-Aug-18 11:12     05 33 56.730026 +19 28 00.79023
 2018-Aug-18 11:13     05 33 56.795787 +19 28 00.90531
 2018-Aug-18 11:14     05 33 56.861545 +19 28 01.02040
 2018-Aug-18 11:15     05 33 56.927298 +19 28 01.13549
 2018-Aug-18 11:16     05 33 56.993047 +19 28 01.25058
 2018-Aug-18 11:17     05 33 57.058792 +19 28 01.36567
 2018-Aug-18 11:18     05 33 57.124533 +19 28 01.48077
 2018-Aug-18 11:19     05 33 57.190270 +19 28 01.59587
 2018-Aug-18 11:20     05 33 57.256002 +19 28 01.71097
 2018-Aug-18 11:21     05 33 57.321731 +19 28 01.82608
 2018-Aug-18 11:22     05 33 57.387455 +19 28 01.94118
 2018-Aug-18 11:23     05 33 57.453175 +19 28 02.05629
 2018-Aug-18 11:24     05 33 57.518891 +19 28 02.17140
 2018-Aug-18 11:25     05 33 57.584603 +19 28 02.28652
 2018-Aug-18 11:26     05 33 57.650311 +19 28 02.40163
 2018-Aug-18 11:27     05 33 57.716015 +19 28 02.51675
 2018-Aug-18 11:28     05 33 57.781714 +19 28 02.63187
 2018-Aug-18 11:29  r  05 33 57.847409 +19 28 02.74699
 2018-Aug-18 11:30     05 33 57.913100 +19 28 02.86211
 2018-Aug-18 11:31     05 33 57.978787 +19 28 02.97723
 2018-Aug-18 11:32     05 33 58.044470 +19 28 03.09236
 2018-Aug-18 11:33     05 33 58.110149 +19 28 03.20748
 2018-Aug-18 11:34     05 33 58.175823 +19 28 03.32261
 2018-Aug-18 11:35     05 33 58.241493 +19 28 03.43774
 2018-Aug-18 11:36     05 33 58.307159 +19 28 03.55287
 2018-Aug-18 11:37     05 33 58.372821 +19 28 03.66800
 2018-Aug-18 11:38     05 33 58.438479 +19 28 03.78313
 2018-Aug-18 11:39     05 33 58.504132 +19 28 03.89827
 2018-Aug-18 11:40     05 33 58.569782 +19 28 04.01340
 2018-Aug-18 11:41     05 33 58.635427 +19 28 04.12853
 2018-Aug-18 11:42     05 33 58.701068 +19 28 04.24367
 2018-Aug-18 11:43     05 33 58.766704 +19 28 04.35880
 2018-Aug-18 11:44     05 33 58.832337 +19 28 04.47394
 2018-Aug-18 11:45     05 33 58.897965 +19 28 04.58908
 2018-Aug-18 11:46     05 33 58.963589 +19 28 04.70421
 2018-Aug-18 11:47     05 33 59.029209 +19 28 04.81935
 2018-Aug-18 11:48     05 33 59.094825 +19 28 04.93449
 2018-Aug-18 11:49     05 33 59.160436 +19 28 05.04962
 2018-Aug-18 11:50     05 33 59.226044 +19 28 05.16476
 2018-Aug-18 11:51     05 33 59.291647 +19 28 05.27990
 2018-Aug-18 11:52     05 33 59.357246 +19 28 05.39503
 2018-Aug-18 11:53     05 33 59.422840 +19 28 05.51017
 2018-Aug-18 11:54     05 33 59.488431 +19 28 05.62531
 2018-Aug-18 11:55     05 33 59.554017 +19 28 05.74044
 2018-Aug-18 11:56     05 33 59.619599 +19 28 05.85558
 2018-Aug-18 11:57     05 33 59.685176 +19 28 05.97071
 2018-Aug-18 11:58     05 33 59.750750 +19 28 06.08585
 2018-Aug-18 11:59     05 33 59.816319 +19 28 06.20098
 2018-Aug-18 12:00     05 33 59.881884 +19 28 06.31611
 2018-Aug-18 12:01     05 33 59.947445 +19 28 06.43124
 2018-Aug-18 12:02     05 34 00.013002 +19 28 06.54637
 2018-Aug-18 12:03     05 34 00.078554 +19 28 06.66150
 2018-Aug-18 12:04     05 34 00.144102 +19 28 06.77663
 2018-Aug-18 12:05     05 34 00.209646 +19 28 06.89176
 2018-Aug-18 12:06     05 34 00.275186 +19 28 07.00688
 2018-Aug-18 12:07     05 34 00.340721 +19 28 07.12201
 2018-Aug-18 12:08     05 34 00.406253 +19 28 07.23713
 2018-Aug-18 12:09     05 34 00.471780 +19 28 07.35225
 2018-Aug-18 12:10     05 34 00.537303 +19 28 07.46737
 2018-Aug-18 12:11     05 34 00.602821 +19 28 07.58249
 2018-Aug-18 12:12     05 34 00.668335 +19 28 07.69761
 2018-Aug-18 12:13     05 34 00.733846 +19 28 07.81272
 2018-Aug-18 12:14     05 34 00.799351 +19 28 07.92783
 2018-Aug-18 12:15     05 34 00.864853 +19 28 08.04294
 2018-Aug-18 12:16     05 34 00.930350 +19 28 08.15805
 2018-Aug-18 12:17     05 34 00.995844 +19 28 08.27316
 2018-Aug-18 12:18     05 34 01.061333 +19 28 08.38826
 2018-Aug-18 12:19     05 34 01.126817 +19 28 08.50336
 2018-Aug-18 12:20     05 34 01.192298 +19 28 08.61846
 2018-Aug-18 12:21     05 34 01.257774 +19 28 08.73356
 2018-Aug-18 12:22     05 34 01.323246 +19 28 08.84865
 2018-Aug-18 12:23     05 34 01.388714 +19 28 08.96374
 2018-Aug-18 12:24     05 34 01.454178 +19 28 09.07883
 2018-Aug-18 12:25     05 34 01.519637 +19 28 09.19391
 2018-Aug-18 12:26     05 34 01.585092 +19 28 09.30899
 2018-Aug-18 12:27     05 34 01.650543 +19 28 09.42407
 2018-Aug-18 12:28     05 34 01.715990 +19 28 09.53915
 2018-Aug-18 12:29     05 34 01.781433 +19 28 09.65422
 2018-Aug-18 12:30     05 34 01.846871 +19 28 09.76929
 2018-Aug-18 12:31     05 34 01.912305 +19 28 09.88436
 2018-Aug-18 12:32     05 34 01.977735 +19 28 09.99942
 2018-Aug-18 12:33     05 34 02.043161 +19 28 10.11448
 2018-Aug-18 12:34     05 34 02.108582 +19 28 10.22953
 2018-Aug-18 12:35     05 34 02.173999 +19 28 10.34459
 2018-Aug-18 12:36     05 34 02.239412 +19 28 10.45963
 2018-Aug-18 12:37     05 34 02.304821 +19 28 10.57468
 2018-Aug-18 12:38     05 34 02.370226 +19 28 10.68972
 2018-Aug-18 12:39     05 34 02.435626 +19 28 10.80476
 2018-Aug-18 12:40     05 34 02.501023 +19 28 10.91979
 2018-Aug-18 12:41     05 34 02.566415 +19 28 11.03482
 2018-Aug-18 12:42     05 34 02.631802 +19 28 11.14984
 2018-Aug-18 12:43     05 34 02.697186 +19 28 11.26486
 2018-Aug-18 12:44     05 34 02.762566 +19 28 11.37987
 2018-Aug-18 12:45     05 34 02.827941 +19 28 11.49488
